iata,name,municipality,country_code,country_name,continent_name,continent_code,longitude,latitude,url
POM,Port Moresby Jacksons International Airport,Port Moresby,PG,Papua New Guinea,,,,,https://upload.wikimedia.org/wikipedia/commons/6/6a/Port_Moresby_Town2_Mschlauch.jpg
YVR,Vancouver International Airport,Vancouver,CA,Canada,,,,,https://upload.wikimedia.org/wikipedia/commons/5/57/Concord_Pacific_Master_Plan_Area.jpg
YYZ,Lester B. Pearson International Airport,Toronto,CA,Canada,,,,,https://encrypted-tbn2.gstatic.com/licensed-image?q=tbn:ANd9GcQKjCXgFVcYAJRAlHbxrKbfgasFPFqhh-2fMtSuwYHO9EdVw_qVHqUFY3Wk4N2b8GS9bZ-4yaJDCn9-A2Dz1B15DjANDg
JFK,John F Kennedy International Airport,New York,US,United States,,,,,https://www.agoda.com/wp-content/uploads/2020/07/Statue-of-Liberty-things-to-do-in-new-york-USA.jpg
LAX,Los Angeles International Airport,Los Angeles,US,United States,,,,,https://media.tacdn.com/media/attractions-splice-spp-674x446/07/3b/4c/fe.jpg
SFO,San Francisco International Airport,San Francisco,US,United States,,,,,https://lh5.googleusercontent.com/p/AF1QipN0-mJ4M1ftzod1vtrdwMyE2fmmqxGdPxnvQMH4=w548-h318-n-k-no
DMM,King Fahd International Airport,Dammam,SA,Saudi Arabia,,,,,https://lh5.googleusercontent.com/p/AF1QipOUymr6rWEWqKUR6_BwZuzkU-3fFBP7Fk-b21xQ=w548-h318-n-k-no
RUH,King Khaled International Airport,Riyadh,SA,Saudi Arabia,,,,,https://upload.wikimedia.org/wikipedia/commons/thumb/2/20/Riyadh_Skyline.jpg/1920px-Riyadh_Skyline.jpg
DXB,Dubai International Airport,Dubai,AE,United Arab Emirates,,,,,https://encrypted-tbn0.gstatic.com/licensed-image?q=tbn:ANd9GcS89A5I7OLZvglO6vNDZwSvqBOjOZW5dVSruS8A9ub-DGb6zVcehY3H5Su_CRQ8D7SBbA73YuB9m8HSZD18MSLSTzomew
DOH,Hamad International Airport,Doha,QA,Qatar,,,,,https://upload.wikimedia.org/wikipedia/commons/thumb/a/a5/Modern_buildings_in_West_Bay_from_Dareen_Tower.jpg/1280px-Modern_buildings_in_West_Bay_from_Dareen_Tower.jpg
GUM,Antonio B. Won Pat International Airport,Guam,GU,Guam,,,,,https://i.pinimg.com/736x/ec/ef/f0/eceff0bfb58b496a2c8fd8f800a08f7b.jpg
CGY,Laguindingan Airport,Cagayan de Oro,PH,Philippines,,,,,https://aboutcagayandeoro.com/wp-content/uploads/2018/01/sinulom-falls.jpg
HNL,Daniel K Inouye International Airport,Honolulu,US,United States,,,,,https://a.cdn-hotels.com/gdcs/production11/d1732/5cdbe484-fc40-4518-8ffe-f2841f424e2e.jpg
TPE,Taiwan Taoyuan International Airport,Taipei,TW,Taiwan,,,,,"https://res.klook.com/image/upload/c_fill,w_750,h_500/q_80/w_80,x_15,y_15,g_south_west,l_Klook_water_br_trans_yhcmh3/activities/nrvernjjs6kv0hbw1sdy.jpg"
NRT,Narita International Airport,Tokyo (Narita),JP,Japan,,,,,https://i.pinimg.com/564x/3d/e3/66/3de36648251a3aae498969e00882b62c.jpg
KIX,Kansai International Airport,Osaka,JP,Japan,,,,,https://i.pinimg.com/564x/6e/43/2e/6e432eb3ae60fb4a7e83fc4ff34eabdf.jpg
CTS,New Chitose Airport,Chitose,JP,Japan,,,,,https://rimage.gnst.jp/livejapan.com/public/article/detail/a/10/00/a1000096/img/en/a1000096_parts_5b303da1f063b.jpg?20220308150500&q=80
FUK,Fukuoka Airport,Fukuoka,JP,Japan,,,,,https://www.planetware.com/photos-large/JPN/japan-fukuoka-nanzoin-temple-reclining-buddha.jpg
NGO,Chubu Centrair International Airport,Tokoname,JP,Japan,,,,,https://i.pinimg.com/564x/5f/b9/c6/5fb9c645ace6e715478f0055e9ae6280.jpg
HND,Tokyo Haneda International Airport,Tokyo (Haneda),JP,Japan,,,,,https://content.api.news/v3/images/bin/19baaccb3d706775bb9c3bbe2f946bb3
PUS,Gimhae International Airport,Busan,KR,South Korea,,,,,https://a.cdn-hotels.com/gdcs/production144/d1960/191730c7-8e21-4540-825c-65954ae4d132.jpg?impolicy=fcrop&w=800&h=533&q=medium
ICN,Incheon International Airport,Seoul,KR,South Korea,,,,,https://travel.usnews.com/images/gettyimages-516351649_rQXknmO.jpg
CRK,Clark International Airport,Mabalacat,PH,Philippines,,,,,https://upload.wikimedia.org/wikipedia/commons/4/48/Mt_Pinatubo_trekking_-_panoramio_%285%29.jpg
LAO,Laoag International Airport,Laoag,PH,Philippines,,,,,https://www.bria.com.ph/wp-content/uploads/2022/06/Ilocos-Norte-Tourist-Spots.jpg
MNL,Ninoy Aquino International Airport,Manila,PH,Philippines,,,,,https://www.discoverthephilippines.com/wp-content/uploads/2020/04/article-cover-photo-attraction-template-b.jpg
CBO,Awang Airport,Cotabato,PH,Philippines,,,,,https://4.bp.blogspot.com/-e0Hn4Mwbplo/VLEfqCT2zaI/AAAAAAAABDg/BVphkUQGQ4k/w1200-h630-p-k-no-nu/Cotabato-Golden-Mosque.jpg
DVO,Francisco Bangoy International Airport,Davao,PH,Philippines,,,,,https://lh3.googleusercontent.com/p/AF1QipPGBmjo0YcnHSWEyXpw5R5bL4aeXPx6z7rc0JSl=s680-w680-h510
BXU,Bancasi Airport,Butuan,PH,Philippines,,,,,https://www.camella.com.ph/wp-content/uploads/2022/09/Cruising-Agusan-River-Photo-from-MindaWow-1024x685.jpg
DPL,Dipolog Airport,Dipolog,PH,Philippines,,,,,https://danielsecotravels.com/wp-content/uploads/2020/03/Capture.jpg
CGM,Camiguin Airport,Mambajao,PH,Philippines,,,,,https://villagepipol.com/wp-content/uploads/2022/07/white-beach-camiguin.png
TWT,Sanga Sanga Airport,Tawi-tawi,PH,Philippines,,,,,https://www.vigattintourism.com/assets/article_main_photos/optimize/1346038711MY3dGUzt.jpg
OZC,Labo Airport,Ozamiz,PH,Philippines,,,,,https://www.asterra.com.ph/wp-content/uploads/2023/05/Ozamiz-Photo-from-Pinoy-Adventurista.jpeg
PAG,Pagadian Airport,Pagadian,PH,Philippines,,,,,https://4.bp.blogspot.com/-VFQk6ysFKDI/UeMOMT8PYEI/AAAAAAAANlg/CjbYN-aTvtc/s1600/P1000294.JPG
GES,General Santos International Airport,General Santos,PH,Philippines,,,,,https://media-cdn.tripadvisor.com/media/photo-c/2560x500/0a/05/29/b1/sarangani-island.jpg
ZAM,Zamboanga International Airport,Zamboanga,PH,Philippines,,,,,https://lh3.googleusercontent.com/p/AF1QipMBFCSxhQn-Etk59e_As6PvslCjs4lb3axarAC3=s680-w680-h510
IAO,Siargao Airport,Del Carmen,PH,Philippines,,,,,https://www.weseektravel.com/wp-content/uploads/2021/11/siargao-lighthouse-pacifico-beach-1.jpg
SWL,San Vicente Airport,San Vicente,PH,Philippines,,,,,https://encrypted-tbn0.gstatic.com/licensed-image?q=tbn:ANd9GcQx-pA7PyFMhoj0wnLFK-4CzPfOJR7qAcgp0pyBjQbC_O7IEeEm9uXRpVTazsJHdkeW-Ly_yvm1YBFpjp3t4oYFxKYJGw
BSO,Basco Airport,Basco,PH,Philippines,,,,,https://upload.wikimedia.org/wikipedia/commons/9/97/Sabtang_Batanes.jpg
TAC,Daniel Z. Romualdez Airport,Tacloban,PH,Philippines,,,,,https://i0.wp.com/outoftownblog.com/wp-content/uploads/2018/06/Visit-MacArthur-Park-photo-by-Ken-Rai-Lang-via-Instagram.jpg?fit=1192%2C896&ssl=1
BCD,Bacolod-Silay Airport,Bacolod,PH,Philippines,,,,,https://jontotheworld.com/wp-content/uploads/2022/06/The-Ruins.jpg
CYP,Calbayog Airport,Calbayog,PH,Philippines,,,,,https://2.bp.blogspot.com/-rpM7xXnsvPg/VV6aVGXdFTI/AAAAAAAAE3s/eiSSPfDSF9I/s1600/cathedral.jpg
DGT,Sibulan Airport,Dumaguete,PH,Philippines,,,,,https://www.travelmyglobe.com/images/Uploaded/philippines/Philippines_Campanario%20de%20Dumaguete2.jpg
MPH,Godofredo P. Ramos Airport,Malay,PH,Philippines,,,,,https://itsmorefuninthephilippines.co.uk/wp-content/uploads/Boracay-featured-image.jpg
CRM,Catarman National Airport,Catarman,PH,Philippines,,,,,https://dynamic-media-cdn.tripadvisor.com/media/photo-o/04/3f/13/98/the-shadow.jpg?w=600&h=400&s=1
ILO,Iloilo International Airport,Iloilo,PH,Philippines,,,,,https://wanhandredwan.files.wordpress.com/2012/01/jaro-cathedral.jpg
KLO,Kalibo International Airport,Kalibo,PH,Philippines,,,,,https://media.istockphoto.com/id/182860526/photo/crystal-cove.jpg?s=612x612&w=0&k=20&c=LESKmAIrbMvkoeqKIRl4OVuBG3HBpBw6K42AXNI6mC0=
CEB,Mactan Cebu International Airport,Lapu-Lapu,PH,Philippines,,,,,"data:image/jpeg;base64,/9j/4AAQSkZJRgABAQAAAQABAAD/2wCEAAoHCBUVFBcVFBUYGBcaGxobGxsbGxseIhsdHBoaIBogGyEdICwkICApIBseJTYlKS4wMzMzGyI5PjkyPSwyMzABCwsLEA4QHhISHjQpIikyMjMyNDQyNDIyMjIyMjIyMjIyMjIyMjIyMjQyMjIyMjIyMjIyMjIyMjIyNDIyMjIyMv/AABEIALcBFAMBIgACEQEDEQH/xAAbAAABBQEBAAAAAAAAAAAAAAAFAAIDBAYBB//EAEIQAAECAwUECAMGBQMEAwAAAAECEQADIQQFEjFBIlFhcQYTMoGRobHBQtHwI1JicoLhFDOSsvEVosIHQ3PSFiTD/8QAGQEAAwEBAQAAAAAAAAAAAAAAAgMEAQAF/8QAKhEAAwACAQQBAgYDAQAAAAAAAAECAxEhEjFBUQQTIjJhcYGRobHR8CP/2gAMAwEAAhEDEQA/APPbolYpZBNMafEgNBpCQFFKcqDl9PAW55ZKM81huLD9/KDtnlYSd+p4tE/keU5p+1NGZPuYrH2/aLCu3Mrox54YrKNDCrYyTksRMkRHLETCAGHQIcI4IdGnHCY5JkLmHChJUeGnMwV6PXYictlksCAwo+ytWf6DB9N3TJZUoCXLlA7CcVan7qQSf1F6RTiwu2IyZZjuQ3H0Tl4OunELZzgNAAnOhzy1pBaTbRMThQgpA7IYAMN1GHyrDerXMQhMssoy8CyrIEqGKj0cOO+HpUmUDLMwKUHOoZ/FmEWzCjuQ3bvlclFdmXUzAknx9YpqABLA0zAGW59dIuTLUSlynaNQCWyAfR8yBlrDVmrQcqaW0Kuql6oglWdRUAGD8flGrufouvEF42BzAU795EALCh5gj0m5Rs8oTkS2OwW0uC9IkBKQmGqs7PgOH0izHAYWNMb0iu+YoGj65j3jEzpKgagOOI9o9XvpH2RO70NPlHmFvG0ecWYV1Ii+RTlrkZKdtIjnIWkYkEs7qANc8w4h9nzaLqCBmWaGXMpdhOOqquGMTakgutAAIcEZne410rF6w2gTUK2QsCigWpSgIUGqG3xXtCAoYmStg6U1BcsKHUbxwhXXes1aWTKCQAMlAHgzpII54Yjqtrg9CYa/Fz+aM7e9yylKeXL6lWoxOg9zbL8KVyjPzrJMltiSQDkdDyMb60y1naVtFZKRQCqssQDgMdQSGhSAZksiYlJAzpRgAcvGI6hNsrmmkjz8GE0WbehKZsxKQyQtQA4AtEETseMIiJaYnIiNQjDiIZN9fVImtQ7J/En+4/OIU5xLaFbA5jyAg5BoupAThOjEdxHzaIL5T1ch2/mKA/oUSPcd0XEB2ByIbyilexUbKkO4TMOe8hXlnDWBH4jNHnCh7R2O2N6Qzc6D1aWzLnz/AGgglXbqee/l6RRsaSJaEgsSkOd308XU9oJ0H0PnGiCuhIxEfeYV+8N/P2iG0S2fdn3H5ZQRXZ8QIZi4IPHQxDOTiS5FQ4I8lede8wFrgKWU5ZiZMVkJIOcSpWRmPCFaGk0dMNSsR0xqODvQ6Y08Dig+ZR/+kbVampXU9xJjzzo5PwWhB4g/0qSv/jHoF6TQiZMUQWDMzB6n71BrHq/DTa0eR83SpbHT7Q0tww2kEmuYUNWDesZuZKMybNmYsKXqGUcQZiwpQjXhFO033MXPlywsIRiYpAKyQXBKlkM1XZL5axbtayVBKFsokPMUlxwACs3JEHml70wsVaW0W1rDhIJUSHKtwOQ8suDnOOM2cPwBPZSATwzqT6kxwyCA/aOo4cOMHEuZ0T5LV1tDrJNOMAUGp+Ueg3JahhA0jzdS8RHV1A7R3cOfp4Obuy8WIS9IXcb5QWPJ08M9IhQDlXqyRWKK+kCi9QOVP3hU43T0h9ZZlbZd6R20JTgepqeWnz7hHnVtd+EEbxtZUsqfP2gYskmPSw4uhaZ5mfN11tCkRYwVevFvKIkS4mWglO734RmVblo3E+mkyrPUlRBU5psh8LHg3tziSzTJkp1A4pZYjEcuZqCRXMbuMV5yVKOFAJKahmDtoCczEd2rmFYEyagJJLhmINGfz4ZR57/U9OKfkPXTawsYcGaicZGFq0DgMS1KtBedZUJkLIDbLd6yB/yhljlgEMocQGzZ/QvxiO952Gzzc6YVB9QlQV6JhVRxtDFk50eUzJmNalfeUT4l4UMliJWiBnoIaRDFiJSIimGMMIEJqTFiZZyRgfQkncKH9vCH2WXqchU89Ims8oqJeqVCvAOWHezw2JApkspJZO/Q8Yo3wD1HALSe8hT/AFxi0kYCUHIEEHcND4+kctUvHZ5rB2CVeCh7EwbBh/cjLwoVYUCUmkmJCM8gBTiwpDrOgCita+f+Is3rZ9sHQNyJEQZqG4gjLLKsaiTyWUEKeuWeen08V5iWV+fT8Te494lKdimfs4eHKQ9WcN+/jBdzkCp8spP1UaQ9FYvrQFBlePz3H1ihMllBhNTrkcnscUQ1SIegvHSIFHDLvWRNRxdP9SSB6x6pe1iMxmIZaQX3PXPlHk6FYZiFblpPgoGPWpJxSZSlfChAVySkAuO6PS+JbT4IPmY1SRm7JdgTPXgSlSUpG2XNWB7RJ1J39nSJDLlpNdohYdTZKyTQVNeBrrSC6JaJjqbCEqKWNMjqDQJ7n84BWizzf4gzZUxJlsQRxwGiWpolgOJ1ixuaveuSJqlLTfBeVMS2ycZ8K5+ndDJiy+FNDqdw4cYGWNK5aiFEYlYlkk/y0igU2pLUS+nhds9olqlJmpJCC9V0JYkF31cQXUm9bF9PTPUkcmUfAwPxJOR48DxhsskbQp9Uhy1Sw2JaUlW0CpSQ4PAnL5RKFpOS0HkofOClSuRVuq4JF22Y2y5IBYb2FBA83iozDLwKxbOIVOFyA5pkIJS5FXBT4j5wEsayq8bWkVDBm/RAuksk9L97CiG8ddS7aaL63MSJQQAfOLCLOdzc46FDsu5GkUVlW+BERxydkkM5LNnyGvd6PwjlumpTLKksoD7u09cqa5/WavEMh5QxVIeueoFKDWuYJgZYLUAgzS4UkstFWwEsApuJSp92Wsebc/dtPX5HrTb6Om1vXZku3JWVLfD1bqSaM6tlnq/dv5hljkSpqSUuCHc791DyVqO9oIzgJ4wrDS8IwGuJKiTl5eYgZYbTNkTUypqULAUMKg7qBDgHTLe7MYxLS7GNp+eDU3YlKcKUsQBppz4xB0qmNZFniUtzSt/MjwETylJKwNkbikEPuyy3bn7oFdM5zWfDvV/6wNL7G/yGxP3LXswCBEkcQIfHmM9MYqIQMRycDz4RKElRYZa/IcYvSpGEaOB4DWvv7QUzsCq0QYKBP6lfXlF1KGo+bHyZvTzhqUBsZctU8RqeG9uESrpXwb60eHLgS3soTnKhmQe1+WCKJScKgRRSCnk4ZzEUvacgchuO71gnZLKcOM9jIMKkcfSMrscu55wtBBIYuCxpqM4UEOkNnw2iY4zOLxz83hQJVtm2m2QqTgVm57hzgPakMSkhq6RpUgl/vCpbXhz+cD7fJxIJbbgJZO0BQqr5Ds99YnkhwQOzTw1iuaOnT3174llYtoucJo1KZAl98MQJaWnENljTJqEc4rTJYKamjCpzHP593GJQwQerqFHs7g20wzBb1i4DjyppXjv+tI3hnb0Z6ZKKDwhwLwUnyAkF+yGB4PqN4rA+dIKC4qPbeIVU6GqtlSeikejXTapi0owsUhJUxfsr2gDoHCs90YBngjdV9TJBAO3L+6dBwfT8JpuY1h+DIprnsJzY3U8dzaz7BLUpahLrMYKKq4QlK9BuZtNBFG87MtCCqXQISWVtE0BZ1HOoqG35MATd12uVagldnKUzGYoJIBp8L5KZ9k14kBzDe91dYOrW6VsWCgGJbgw5u+dGzj0KarmXwQSnPFLn+jCkGZLT8ZxFRIw7SqpqSKBgDo1Nwi9cqlzAUKdBwhD4QAEJJqyicJpVhXZNM4uSrrWgoBViUjafJLA0FXL1apJfy7elqRJlI6xwVqw5VzGNXIBhWO+OtN1X6IHM+rUIoXv0YFrnKWqcQlKQlISkHDVRYvrXzgbZv+nYKSVzyghSg3VhVASAe09RpGoss7AgLZQKw7ZEBiE0LaHxIiS3WwJlkrzUAcnFQ4ccg0Fk6VT2uy/lipq2kpfd/wAJGVlf9PEKJw2wFmH8genWQHsfRozLVOsgmgdUCcZQ4UxSOzip2t5yjaWeaFKCgWZA2nNS1QX89coA3BNP+q2g17Kn5YpYL8IQqW1tcFUq2mt8+CvM6DqSlR/iUjCHYIU/kqID0QnBAWm0oqMTAqcVYO2RplGoTbiBhmqdRUWYBgk9l2GXOtaxbVLTNQuUkSwvEQjNgcAUlwkZFjXyhjSVJ+GBLty5f4lrnxyDej92TpNndc1KsZUSCVGmzhIJ3EP3mFZJ1pSFplEBUwsCoVSp9opLNharHKjQSs90TJMhPWTVkjtsQcIc1llgQxri8ofYrtaZ2lBKxiBZziBeg0c0NA8BUqvuX/fqNinKar/v0IrLZZ8pBTLbGUscVUhbBz4/E2ZygNdlnmS5uOahZUVELKu0FEYXG5THIUIypl6HMISkKoJhACgA9XH0/nE0u7xWZaVhKWApmpqtUPThlDsX4N3r/ZNeRLJ0pN7/AKA4s6htMSkZPrwrpAHpUpQly0KOanA1Abdmzxb6Q9L0OZdkSAMsROIDxfEf9v5oyKlqWStaipRqSS5MefnyrtJ6ODHS5o4kRxKCosMtT7DeY7KQVlhk7EjfuTxgtJkBIZLOKUqE8OKjqfaJojZTVaIpMkIDBnbnhB9TvOvKFgBDvQ+dWc98W0Wcdo6U8deJitNDnhu+ff6Q/SQhvZ2QQQXNHz9uVYglviSCaJJz1+6fBvOLEuzKUEkJUxGLd/mLkq71EpNGNDV97fXGBdHaK1llBS9kAoCxiIyqz5cfB4LzkdXjDslQATXIkNhHke8xxCQlkABlODoS+vdv4xFOStVFEbIViLu+yQwGervwEKphpFCbY5aj9s2IOAd6SSoeaiO6FFj+JTkxU1HbNo7A8B7fsIp2S2qRm3aLbIT9aCKs1J7QDHUP4xcmAk8f2qXgbe1tQhCissEM6uPD5cYIwq2iXLUKBznif6rFH+FQkKedLFWIUQOOb7j5xk72v9c10odEvcDU/mPsKc4DpVDpxPXLFOk2elyZLl04ZhGRQpJIFONc8uESSZm2ytkpxDc55Gvd4R5rLmkFwSOIoR3xq7m6SHCJVp+0lEjbZ1oqCS+ahzrzyjnLk1c9jRlBIrmAWOb7oqzJGFwezw+El+z8ouiWlAZKsSTtJUKgg5Eb4iUpwBniOIngMvaN7nIETbKRtJqDuyPL5esQEvB1MsVw7+5uI1ipabKFcFd7ft6Qtx6GKvYOs89cpWOWopPkeBGoj0fo102lzkiTaxtZJUanuOav7vzVI87XZZidHG8RUWN9IOLcgXCo9etNlSqZRWY0ZjuVTVoAWpCZ0wzAxSJkuXLcFmlqBWQ+9eZ4DnGaunpJMlAomElJBGMVUl9+/wDNnzo2t6PXzd0uUJYnKQAAASEjxKwCYunNNSlvWjz8mCpb1ySz7OC6VJ45anJjvzgVeVgUtcwkkJDMNNkJf28Y2Miz2SYypdprm5LDzAETruhwSyFh3xJL76t4QeXJNL2J+PiuOGta/c88mICEEJzCgQ1NK561MBeiyx/qc9/iQscy8s8tDB/pbOEteFgWUTmzO/00ZG6l/wD3ZynbEhbHdiCcu6JU9ly45CFsWkTF7buMJAzBAATuoxAfWCl33mELTtMGSFCpYsQCW0Yd0ZtF3zFrV1UtSzUMgElizUHLxgnZ+jFtIfq+rDVVMUhHiCcWm6OVa/M2tvtwa27L3lvgWrG9ArRQL/44tE122lKZhl54Tsknf2e/4f0jlGYu67kyVmZOtskHRMvFMbe7NFi03pJQQqUZk2YMisBKRxYbR5QSzTOxP0cls2FqvKVYwZs1ZVMV2UAmnAtUk7uTtnHnl/8ASOfa1HESlGiRu3FtPwinM1inaJq5iypaitZ+mAGQ4RNKu+YasEjefpvOE5M9ZGUYfjTiX5lBAKdIvWSxrmaFKfP5Dn4Rds13oBf+YrTd4/KsX12VRDKUAk5NQCozGvfC1j33HO/RTloCdhFSKEpHZB3c9Vf4ggiWENT3+jxivZ14Xo5wseaRr4wWu+zYhjJZIq5889wg+ELbbHSbuUpBUXxEEpS4Yc90D597WOzsiZNQVAnEEPMfmQkgcjujLdLuk5nkypJIkJPfMI+JWrPknvPDJzHA3buPHlGa2HrR6celViWGTMUlT0xIUE1NXLFg0E5c5OAdUsTEkkhSVJIDaHlwrHiylPFy7bzmSFhcpeEipGh4EZGOrFvsB18nraV/EoYVAvTSrU4M3OOLQ+NSQHDl68WHM01y7oo3BeibXLCwWmJpMS+TnZZ/hO/nBeTLIoTmAD5+kIcvemNXbaBEpEhYBViBFG89/GFFyW4cYE5nfCjOk0sCYAS5pXv5R5n0uvPrJpQnspNfxLZie7LxjaXreX8OPtA6KAFhjTufRXMV5x5haJuNal5YlKU25yTDsM+QMr8EQEJoUJ4oFbOpixJUxaK43ROnIHJizcqwNIKWbnovbFTEGzqJdG3L3s+2nlkR3wSXZ6gEMX2tGcinl5RmbgnmXPlK/GEnkrZPrHoc+ypmVqDQZ90TKh1TzsBtSgNfnDSrFhDbyeQ/zBOddawKHEM+MVJiCDUZCnhwhiYshwJ0Ncq8Sz744uxY3BCVMW4mg+fGLAlKSgqNBoTQeZEMswU4CQ6UVJlqSqjHTP8AxGmbBFpugDIlOfEfXdAydYpidMQ3iNXMtSapGVanPv3QOta3U4DGjYfrjG6RvUZsrKTqk76iCllvqeiqZyxzL+rwVRLoK4ufDnEC7OMRoDl8IzMc0/DNTXocekcxdJqJM7/ySwT4paAV23mZdumTUIlhwsBKk4kpGy2EE6NR40Uqzg5BAZtBr3RnLqAN4TWy29H3aR0p6fJlOdrg0Np6TWlYYz1JG5ACP7QDAqbOKy6iuYd5xKPnB+ZJACjQt+FL5Pk0NTKLdpzXshnqRpllCnDfdjFaXZANEiYcpZA3mkXLNdztjUS+iaDx/wAxcXLoCHJBcg+VeBixYDk598t/1pBKEgXbOybLhGykJHAVzbX5RIbMKFaidrf8/DvgiqWEh5iky0ByDMUlANXGZ8ohTbLKp0/xUo4tErQNK1xc4PaF8sp2ZGAqSzYTrxJIzhs2Wol3pXlU5wZl3YNplEkkEEsSAwar84nstilgfeLlyWPOuXhHOjtARFhWa7lA83DMN9fQQ3plaDJsolod1nDT7uayedB+qNFOW6WZj77/ABjJ9J1pWtJxZI3OKqIOmjDzhN3pbGRO2YgSAQA1SCS5FWIFNMyByJ3QJnLKlEn641g+pICFUJZD8BhQoueDrHgIzhENxeQcrOlvrg0cz9ISeEcz5w4SFejluVJtEtaXYqCVAVKkqIBDCpOoG8R62tYGtBmY8TlrIKVJLKBBBGhFQY9Huq8BbkqVMBASdqUksMgylHMhTKplQ84RlT7odha7Ms2u90BRCEzJg+9LQpSX1AKaGFBNIUww0DZAUHCOxPtFPSYfp5eaZi0Ill0jaPPIOPHxEZHDFm2z+sWpW805ZDyaI0o3OdKa74snhaJXy9kJTHSYkUCTq59zDT5fQEFsFoYBEyOz4xFhizIIxJzIBHf4xldjY7mgsEklcoNXGn+4R6Vj2cJ30fiT9d0YK45mKdLBBLF+ySwGWXECPQrHOTR1DMCtDy3xKlyUUTolEhqM7V1o5jI9MekIs56tDKmKD1HYBoCd5zYRs5ixV3FNN9d0eGXjaFzpsyYp8SlEl9A7AZaAAd0MUoWivbbdMmqxTFlZ41bluiFJIII8d3ERLKTWgSdGV/kRyYtDUd99ADxbTlDf0Aafds0dy9IS6UTzjS4ZZqpDb9VJ3g13RqF2UpwkodyS4qC/HkRHmyDtADXLhHovRS19ZIAUayzhGtCHT3io7oCuAtbOpl6bQoAc655F4cJTqLAlyNH56Qcs2RPLSBvSS2qlhMqVszJhAKx8CCQCQdCTkdGMZNb4RjWgdaLdLkrCVreYD/LQnrFGmTCgPMxl7HeCE26ZMmBaEnG7o2kuPiSMvNo9MvK6P9PkSzIITjeqkoUVKACkrKgkEmusZK6pEuVMVNBBmLSsKxYlOFg48QJq758YC/kRjbT3v9DYx1a2uwWsZTMTikzBMQ+Y0UWZwQ4yyIiUSFOQEqIdn76+cI3YgSv4yzrSicFFKpaUhKJqUgqKVBOS1B2JzI3l4N2aYiYlExJooYh3sfaNV7Spdmc502ihKu5RSNlI3v68oEX3eqbGnDLIXOViqRRAepI55DnwEbFRyY1ZqDjWPHukdqM2dMUTmsgflBZHkI1Pb0ZrXIIt1tXNWVzFqWo5qUX8PllESZimDKI0oSONaxzq6O/dHVHIOab/AGh6S8C22wz0b6TzLKpnK5SiMSOH3kk5KHnrHrsqeiZLTMQsFKmUFDUfQyjwVQj0/oDbUosaesWgALmJSCoCjpNX1cnuIgMiSWzYb3o1UxQNUiubxl7/ALA8xKsWEMUkt2U4i3gFeYgwbeC4SFKSdQls9xU1M6iBV/LmYHUlIzzUo0Iq9AKlqPEdttFMLTMnPkDbSpTOFsN5UGA/2P4RliKZZRtLVbFYglCUOAVJXh2iUuSHetMWfCMpbHK1lTOSXagJ1ag1h+BvyKypaKzZiOkVfuPPIx0N9e/c8OCiC+o9R9PDxIwI+uMaPoLb+rtIQSyZowfqqUedP1RndKfTZR1yCCCxDENoRu5GNa2jk9cnrtovHq1FLDf4woAotGNCJksOFpBPBVQoeIhRH0luzAKSRmCIfLUUkKSSCCGIoQc3B0IYF4vmZiLEU9qE/wC0DxMQT5SQCSSDuIzJP+fCKZrfDFVjSXDK6pqiSpRJUXJJJJJOpJzOcRgQoclMOUiW+NHAKxbsSHW+bbojMhQqQYs2GUSCeMLyLSCx8s2/Q2zqUVzAKDZ5uXPgAPGNXL2ScQ1HgcqbyS0BuhslSJVDRRUSTw2RrwMEnMwklSaGqQ70LJHiHiYc+WQ3zMlypE+Yl0qShSkAOGUzDzIjxmWK+Z9Y9Q6fTCixEH41pSM3zxl3H4I81s5dkjDU5kQ+FwIt/cNXNFQBpm8KR+UK5vTzixa7NgyA3M5o4oTvOtIM3BcXWCZMWlZQhLbJA2yQlAU4NHJfkwg+njQLp7A1iUEmY+qSkUerg+oFY23Q1Q6uYyVKqnKgyO/nGfsl3INmmzVYwUTVISnDRyEdpWYoTv0yjTdDdmTMOuOnchIpE3yPtnY3G2+DQSlkDsq3VBPoIxHSa0qXbcKWolIZVMOpYKauvfG7sS1EYg1WZ+GcAbxuE2i0zpyFJCklCVIU7FPVpLhSag594ELwW2w7nfBBfd8mfKlBdoUky8RCUpJxEgMCSsBLEZgHPLSI7rRLWhX2icf41gM40rnAS33SJa22mLs5NQ9DXODFwXXLwLKwDUM50I074T8y1puu/wCRVhhSlpcBuXbZctJQhEtYBcELUS5A3qcdxMTXLbQZQwAgBS3SlKiBtklIJzAgBb7BLQgzACQipAJGoAr3wY6PlUuWpCyMQmLer5soV5KjcF9Ub8C8sTNcLnyFxalODgXw7HuukeW3qvEFIYpCFqNQHNQKl+Eeom0OKMQWy4/QjA2+yvPmoYH7RTOWHxrDmlKP3RVj7iMnYzKJRJrkSznzia1WUpocxXk7MxGbgjNs8o0lzXAZknrVmWy5nVpClqBSdpRIamQSKuKndB2f0LKEpUQlTg4mJYF1OA4rXDrWKVInR5p1dDQvmaUbfwrTvjVf9PpgTNmoIcqQFAflLf8ALyilaLvJJAFKgHDm2Hm2vhFzopYVotJUpBSUpUFAA7gCDRnxVz0Pdlzwzp4Zuw2ZIGjfXCKd7IxypiMTuklgNRUZcRD+py3sQeLGhPn4xyWvIg7w9Mwf2MRrS4RQYdQHVpmEgFCkltVJFFN3PWBF7WdIwFCVAAYSS+0UkgEPk4GQ3QUviSAuYynIKqvkHoBzBirNlY5QLEqYMX+4rAoNlUEHf5ueNtabAtbTQBUIc2v1T9ontFlUgsoEFhE4sa8AUpLBQVhJepSAT4hQzzeKRBSA+vSHPr9Vzg1dFglqmYJiSoqlqXLS5AXhBWE4gxBIQtI4tnA6fhckJpuGhLsHauRA3tGnBG5ekkyzy+rAJDkjg7OPEE98KOS7jmKdgosWJQCUmgLgpS1QQe+FA8ejd17Llx9GbRaZcwyUhWEhFVJG0WKgHNalKf1CJLxumfZkiVMASmZhxFkKcALKWWxwkpCiQCCXEArNeZQGClipOytSc30BY1YufujvZOvIqSynLb1KYck5CgA8YJStb8h9fOn2OTLPMSRiQpLgKTiSRiCuyQ+YNIt2WxzOsTL6tWNRDJIZRcsKGvCBptVcQ2TwdqM2Z4QRsN8JlpcCZ1jl19Y2yTVIBSrNL13nKDTSFsudIb4XOwoUlCRLGBOEAUAGZGZihZQcIDHfSKC52JROpJPjnBm5zjmIQMyoZnOoJHlCc9NobjS2ehXZMTLlIR1ZLBiQDU7v3iSQpBYEstVVDaoSoFi2QFYq2TrBNDEMlOIjJzkKsYd/FrK1rEqpOGjkBhUnQ1iLrHdIL6YSUz0qSkqIQlS051KU8QaHER3BomsnRGUVIEtQUEkKcoIJByBUAllOCO4xmOkl4zJc1ctJIdASviFVLbqNWO3N0ymyFAnEsUKkuBiIxYS4DhiXirF1LT1sTXT1Fybdip9qmSkTkFMkJIKnSkKWUpcflKnJJzB3x6Fdlkk2OzkKUkoQhIWtaaOpalEk7nmeEeUXBfHVGepScRmJc7RTUKxZioq3hE1g6YzpClJDTEZFCnwlhhGRdmADbopt9tIXvyX7Ze8oS7bJRLG3aCtAI7KSNtSSDSqUsHyVBzo3LazA4gKzCa/ib2jzqdb1TJi5i6qWokmgDk7t3CPTbgUtNnlJABBGMl9StRAbKrM/GIfmU+lJjsS2y4ielJAd2LBi+jiHWO8pkpExpIVKMxRmTlTAgJZCUsHIBOVSRm1XaK9otGAdY1KOAH0dzk2dYzsu+5iFl5jSypSjLcDtJA3cAW4RN8Z9NNvtodUOuxYvq3S56w8yXhQClOENTV8KlA5doKYx27DKZQE4BmNXrnwgUi8EOVOHJJzGp84vXfb0tMDpAUz7QDfXtCvkbre0V40kkthqRaJSC/WJUksSlVQrhRjxidEpPWTBLZKMSFhIJYY5UssHLs5LVgYb2DBihgRTGKs3DKHyLclUyYoqQorwlqnCyQlh/T5wOC+iWqAyQ29oNKm4XJ0ZvF3jO2W1BF4pUoBWKZLOlFEJQeGSzBRBFGNCnESaeXOMj0qmqRMSsAOyFDuJA9BF2Gt0iXKtSei9Gl0tadr7O1qCdkUcgAmlGAVWmUFrdeJlfzHKAjrE73HaTkwLgV/FHjF0dLLTZzMMpY+0G2FDE5qxqXcOavDbf0lnzVlayl1UYBgAwDAO2gi9Lb5JVbPSLzssj+JkTEkdXN+zUnF2TNT9mTmQ5BFd8XLhsUtZteBBM1MxaFPQ/wAtKtTmVEuaVHCPHxe8wIUgEBKilRYfEgukvnSJbN0jtMtalomlKlFKlNTEU5Et9VMa0+nRqvk9EkThhAJqCQa6vV4qzrOgpUNSp+PdFex28rlImKAdQSrPNQ7Q8jDhbzhxhDOd+UeW+HyUrnkBXtIZZ2WcbmcgkHyIgddtoMtZIfZIU7EhIUGJI4ECNDfq1LlpmJAdx5jI+AjIzrYtCsaVMciWBeoORpmB4Q7Gm1oG2k9hrpLe38RgXMB61SBts2IB8LAJALnXc0K77ekSUpwDE6SglK1Yl6iiSHcJpqJbaxl5lqWoupTmjdwAHoI7/Frd8Rcly1Ku70isnNnbR1SMKEAFSzMlKANUKCJiMClJCqKQpGFh2+IgPYbxSiaChkSwgpcjEEqUBtpFCDiSksMi+jiA0y1rWGUoqwgAPVkh2Hc8QicrfGaO2jbWK3z5qXSvq2JBShKAHdw2KYCQElKQdyRWFGK6074Ubo7ZC8IxyFBbAOvCeORyOOJZIrB6514V4tUhx4jxgHIg7dUtDFS94GcIysbjNRKtlTMMw1FSN1WDDiYsC3oYoMwqSWGYFdRyL8cozsxaVEJlp05107hBSRKSiYhCQnE2JTkNRNa8TEbWuShMx9+2jrLRNUHbEQHL0TsjyTA2CM6yLJKlJYkknEUiprqYgNlI3HkSr+0GL00kkidpkchbP4RAouTBCTZFGvVrPJKveF/pyyaS150oB6wTtIHpbKEjtCPRJ1rULuSqWooVLCXUEoYu2yXc/FmNwjMWW4lnNDc1D2T7wavayTJdjU8w4XSMIAANUiu/LyiTNSqpS9j8cOU9gFHSG0gv1j55pSc88xFSZa1LLqYnkPAbhFWHgw7pS7IJbJxNLZJ/pEPRalAUCf6RFZ4cl4xpBb54LAvCYMvJIh0u8puiiO5PyivHWgXE+kFPV5ZsrBMxpl4phUoodWVKgtTKBPS1tgAkkJbzf3izcl0TJktMwqIllwANWJ8A4i1elyAs5J519YQqUWbcu5aRhkw54PzLhV8JT3hQ9Fe0Qm5ZoqCjuUr3EVrNL8k30aXgDGOQWXc03XCf1fNMQru4jtED9SD7iDWRPyLeN77Bjo4szJRlk9glu8u/nBeZPKQpJY+UZewL6ollg8A3sTEk23lSqPpviS5bp6HTWlyFrZOV1a0FJAYHN9foRlbSXEaGRbsUwYwWKSlQO4iAdpk4SpsgefhBYuO5mTnsDHhRLgG9ucIyjox5RVsRoiBhQ4pO6GxpgoUKORxmx4Qd0dCePhEqgOJ4kxJKkqPZSe4RwWiJMgnQ97D1iRMgarSOQKoty7tmHNhzPyi3Luf7yj3D5wqskryHOOn2QPQJY1WfAQSsNlUsDAjZ3qJbyZ4tyLol7ieb/wCIMyLNkACB9aRNkzrsiiML7soyrsS9SpzQsSIkVc6UhRStadlqEa90EFyUDtLA5qEQ2ifISljNRp8YPpCeq+w3phAX/SV/DOWOYf3iZN22kZT0HmkfKJDedlT/ANxzwSo+0NPSCzJyExR/KB6qhqeR+P6Aahdn/ZYkyLalBrJVnw0bcN8Vestic5UtXJQ91Q2Z0rQzJlKP5lAfOK56QzV9iSX4YlegEG5v0gNz7Zfl3jaQz2V+Svk8d6T3ktdnwKkqlupNSS1HLVAipKt9sV2ZISN+Eg+K1RH0kmT+rQJyhVThLpegNWTz84FT964X7G74fLM5HUxwQ5MVMyR5h6YYqHpgGGu4mjpEch2KBD4Nb0eveYiQhEuWFYSqpJ1UT7xftdrtyhSTLTX4mP8AygH0eu5M1BPWhKgo7OrUrn9NBSdcM7/tzyOWIehiW3Kt9gultFKZKtqjtTJSB+FI/wDX3iMXXOV27SpvwhvcekPXc1uBpaAeGNfuCIhXYryTUKCuRQf7gILqfipQHHlNkqrgRmpcxXNQhwuKSH+zUeZUfeK6l3intS3/AEpP9phpve2ihkOP/Gv2Mb/6vtS/k5vH5l/wELPYEJUGlJ/pB9otzEUolu6AsnpHOSoFUkd4UPURbPSk6yh/X80wuoyPv/k1Xj8f4JrRZkqDKQ7fVIC267piVHq1Ftzs3tBM9IkHOWRyUP2iGffko1MtfkfeCj6k+Ab+nXkATkTR2kk80hXtFZRGqQOTiDy72lH7w/TDF2+QoMT4pPyiict+ZFPHPhgE8CfWEl/wnnBZQs6tUjxERrsUo9mYPEQayrymv2AeJ+GmUOpP3POFFv8A006TEtHYL6i9g/TfoYi2y09mX4tEhvfcgd5hQo5wmcraQxV9zNAkcgfcwkXhPWaK8AkQoUE8c+jFdb7lyRZrUss6v6wPQxfl3FPU+JYpm6iYUKJMl67IoU78lqX0XPxTAOSf3hTOjKDTGs8sI9QY7ChCzXvuM+lJyX0es6e0FKL6qPs0WRdlnFEykZ0cFX9zwoULrPfsasMei8mzIQCyEimiUx0u2efc0dhRlU9nSkMWg5UfvjK9KcIUApRUoPQaPvJHpChQ/wCN+MXn/AZsGJJZcgDMlh3x2FHosilmhkdHFNtEDkcvKLP/AMX4+Y+UKFHk18i/Z6kYp9HT0WWQWPmIB3nd8yQQFgbWTF3b0hQob8bNVXpic8JJ6GWCYoOQSMqgtGjsnSmagNNGNO8MFfI+XOFCivJjmu6JJyUnww/YLcieMSCTvcENFokjjChR4+WVNtI9OKblbEhXjCDEKprChQtsKu4koBy4/vDrRLfQHuEdhQaBTKdps0ttqWj+kGsUZ92SiHMtH9IHpHIUMnJSXcFwmDpl1SMsHmoehiuu4pTsyh3woUOWa/YNYp9FOZciPvEeB9ogNx7l+I/eFChkZ79iqxT6K/8ApKt4hQoUP+rQv6Un/9k="
PPS,Puerto Princesa Airport,Puerto Princesa,PH,Philippines,,,,,https://encrypted-tbn0.gstatic.com/images?q=tbn:ANd9GcRikgSSCFdhTYTZ3MYLphKemrJoTtTMbQ2jlyIO7ch77HvYhGjFbmT1ruly5qnLIi3EIjQ&usqp=CAU
RXS,Roxas Airport,Roxas,PH,Philippines,,,,,
EUQ,Evelio Javier Airport,San Jose,PH,Philippines,,,,,
TAG,Tagbilaran Airport,Tagbilaran,PH,Philippines,,,,,
USU,Francisco B. Reyes Airport,Coron,PH,Philippines,,,,,
PNH,Phnom Penh International Airport,Phnom Penh,KH,Cambodia,,,,,
HKG,Hong Kong International Airport Kai Tak,Hong Kong,HK,Hong Kong,,,,,
MFM,Macau International Airport,Macau,MO,Macau,,,,,
BKK,Suvarnabhumi Airport,Bangkok,TH,Thailand,,,,,
HAN,Noi Bai International Airport,Hanoi,VN,Vietnam,,,,,
SGN,Tan Son Nhat International Airport,Ho Chi Minh,VN,Vietnam,,,,,
DPS,Ngurah Rai (Bali) International Airport,Bali,ID,Indonesia,,,,,
CGK,Soekarno-Hatta International Airport,Jakarta,ID,Indonesia,,,,,
KUL,Kuala Lumpur International Airport,Kuala Lumpur,MY,Malaysia,,,,,
SIN,Singapore Changi Airport,Singapore,SG,Singapore,,,,,
BNE,Brisbane International Airport,Brisbane,AU,Australia,,,,,
MEL,Melbourne International Airport,Melbourne,AU,Australia,,,,,
PER,Perth International Airport,Perth,AU,Australia,,,,,
SYD,Sydney Kingsford Smith International Airport,Sydney,AU,Australia,,,,,
PEK,Beijing Capital International Airport,Beijing,CN,China,,,,,
CAN,Guangzhou Baiyun International Airport,Guangzhou,CN,China,,,,,
XMN,Xiamen Gaoqi International Airport,Xiamen,CN,China,,,,,
PVG,Shanghai Pudong International Airport,Shanghai,CN,China,,,,,
JJN,Quanzhou Jinjiang International Airport,Quanzhou,CN,China,,,,,
BGY,Orio Al Serio International Airport,Bergamo / Milan,IT,Italy,,,,,
CEQ,Cannes - Mandelieu Airport,Cannes,FR,France,,,,,
DUS,Dusseldorf International Airport,Duesseldorf,DE,Germany,,,,,
KWI,Kuwait International Airport,Kuwait,KW,Kuwait,,,,,
LAS,Harry Reid International Airport,Nevada,US,United States,,,,,
LHR,London Heathrow Airport,London,GB,United Kingdom,,,,,
MCZ,Zumbi dos Palmares International Airport,Maceio,BR,Brazil,,,,,
MAA,Chennai International Airport,Madras(Chennai),IN,India,,,,,
MEX,Mexico City International Airport,Mexico ,MX,Mexico,,,,,
NAT,Augusto Severo International Airport,Natal ,BR,Brazil,,,,,
CDG,Paris Charles de Gaulle Airport,Paris,FR,France,,,,,
KUF,Kurumoch International Airport,Samara,RU,Russia,,,,,
SVO,Sheremetyevo International Airport,Moscow,RU,Russia,,,,,
SJU,Luis Munoz Marin International Airport,San Juan,PR,Puerto Rico,,,,,
UIO,Mariscal Sucre International Airport,Quito,EC,Ecuador,,,,,
RAI,Nelson Mandela International Airport,Praia,CV,Cape Verde,,,,,
FNJ,Sunan International Airport,Pyongyang,KP,North Korea,,,,,
PUS,Gimhae International Airport,Pu San(Busan),KR,South Korea,,,,,
YQB,Quebec City Jean Lesage International Airport,Quebec ,CA,Canada,,,,,
MVD,Carrasco International Airport,Montevideo,UY,Uruguay,,,,,
MAR,La Chinita International Airport,Maracaibo,VE,Venezuela,,,,,
TLV,Ben Gurion International Airport,Tel Aviv,IL,Israel,,,,,
KRK,John Paul II Krakow-Balice International Airport,Krakow,PL,Poland,,,,,
KRT,Khartoum International Airport,Khartoum,SD,Sudan,,,,,
KTM,Tribhuvan International Airport,Kathmandu,NP,Nepal,,,,,
KHI,Jinnah International Airport,Karachi,PK,Pakistan,,,,,
IAH,George Bush Intercontinental Airport,Houston,US,United States,,,,,
GVA,Geneva-Cointrin International Airport,Geneva,CH,Switzerland,,,,,
FRA,Frankfurt Airport,Frankfurt,DE,Germany,,,,,
FPO,Grand Bahama International Airport,Freeport,BS,Bahamas,,,,,
